start=new Date('2021-10-14T00:00:00.000Z').valueOf();
sats=[{"MEAN_MOTION":"15.69750326","LAUNCH_DATE":"2021-09-14","MEAN_ANOMALY":"262.5846","TLE_LINE1":"1 49138U 21082J   21286.91668981 -.00006787  00000-0 -55115-4 0  9996","REF_FRAME":"TEME","APOAPSIS":"362.013","MEAN_MOTION_DDOT":"0.0000000000000","OBJECT_TYPE":"PAYLOAD","RA_OF_ASC_NODE":"43.1344","MEAN_MOTION_DOT":"-0.00006787","BSTAR":"-0.00005511500000","EPOCH":"2021-10-13T22:00:01.999584","DECAY_DATE":null,"OBJECT_ID":"2021-082J","MEAN_ELEMENT_THEORY":"SGP4","CENTER_NAME":"EARTH","SEMIMAJOR_AXIS":"6737.748","ARG_OF_PERICENTER":"282.8543","ELEMENT_SET_NO":"999","REV_AT_EPOCH":"370","OBJECT_NAME":"STARLINK-3058","TIME_SYSTEM":"UTC","PERIOD":"91.734","ECCENTRICITY":"0.00035610","PERIAPSIS":"357.214","RCS_SIZE":"LARGE","CLASSIFICATION_TYPE":"U","NORAD_CAT_ID":"49138","COUNTRY_CODE":"US","FILE":"3161149","TLE_LINE2":"2 49138  69.9996  43.1344 0003561 282.8543 262.5846 15.69750326  3708","SITE":"AFWTR","GP_ID":"187102743","INCLINATION":"69.9996","EPHEMERIS_TYPE":"0"},{"MEAN_ELEMENT_THEORY":"SGP4","SEMIMAJOR_AXIS":"6737.748","ARG_OF_PERICENTER":"283.4809","CENTER_NAME":"EARTH","ELEMENT_SET_NO":"999","OBJECT_ID":"2021-082K","DECAY_DATE":null,"MEAN_MOTION_DDOT":"0.0000000000000","OBJECT_TYPE":"PAYLOAD","RA_OF_ASC_NODE":"43.1370","REF_FRAME":"TEME","APOAPSIS":"362.048","EPOCH":"2021-10-13T22:00:01.999584","MEAN_MOTION_DOT":"-0.00006764","BSTAR":"-0.00005492000000","MEAN_MOTION":"15.69750320","MEAN_ANOMALY":"259.8313","TLE_LINE1":"1 49139U 21082K   21286.91668981 -.00006764  00000-0 -54920-4 0  9995","LAUNCH_DATE":"2021-09-14","EPHEMERIS_TYPE":"0","INCLINATION":"69.9996","SITE":"AFWTR","TLE_LINE2":"2 49139  69.9996  43.1370 0003614 283.4809 259.8313 15.69750320  3701","GP_ID":"187102958","RCS_SIZE":"LARGE","CLASSIFICATION_TYPE":"U","COUNTRY_CODE":"US","FILE":"3161149","NORAD_CAT_ID":"49139","TIME_SYSTEM":"UTC","OBJECT_NAME":"STARLINK-3057","REV_AT_EPOCH":"370","PERIOD":"91.734","PERIAPSIS":"357.178","ECCENTRICITY":"0.00036140"},{"OBJECT_ID":"2021-082L","DECAY_DATE":null,"ELEMENT_SET_NO":"999","MEAN_ELEMENT_THEORY":"SGP4","SEMIMAJOR_AXIS":"6737.750","ARG_OF_PERICENTER":"288.0143","CENTER_NAME":"EARTH","MEAN_ANOMALY":"261.9707","TLE_LINE1":"1 49140U 21082L   21286.91668981 -.00111360  00000-0 -94340-3 0  9995","LAUNCH_DATE":"2021-09-14","MEAN_MOTION":"15.69749618","EPOCH":"2021-10-13T22:00:01.999584","MEAN_MOTION_DOT":"-0.00111360","BSTAR":"-0.00094340000000","MEAN_MOTION_DDOT":"0.0000000000000","RA_OF_ASC_NODE":"43.1380","OBJECT_TYPE":"PAYLOAD","REF_FRAME":"TEME","APOAPSIS":"362.069","GP_ID":"187102851","SITE":"AFWTR","TLE_LINE2":"2 49140  70.0003  43.1380 0003642 288.0143 261.9707 15.69749618  3674","EPHEMERIS_TYPE":"0","INCLINATION":"70.0003","PERIOD":"91.734","ECCENTRICITY":"0.00036420","PERIAPSIS":"357.161","TIME_SYSTEM":"UTC","OBJECT_NAME":"STARLINK-3118","REV_AT_EPOCH":"367","COUNTRY_CODE":"US","FILE":"3161149","NORAD_CAT_ID":"49140","RCS_SIZE":"LARGE","CLASSIFICATION_TYPE":"U"},{"FILE":"3161149","COUNTRY_CODE":"US","NORAD_CAT_ID":"49141","CLASSIFICATION_TYPE":"U","RCS_SIZE":"LARGE","ECCENTRICITY":"0.00034760","PERIAPSIS":"357.271","PERIOD":"91.734","TIME_SYSTEM":"UTC","OBJECT_NAME":"STARLINK-3093","REV_AT_EPOCH":"367","EPHEMERIS_TYPE":"0","INCLINATION":"69.9996","GP_ID":"187103064","SITE":"AFWTR","TLE_LINE2":"2 49141  69.9996  43.1320 0003476 278.4579 269.1075 15.69750267  3678","EPOCH":"2021-10-13T22:00:01.999584","BSTAR":"-0.00005410700000","MEAN_MOTION_DOT":"-0.00006667","OBJECT_TYPE":"PAYLOAD","RA_OF_ASC_NODE":"43.1320","MEAN_MOTION_DDOT":"0.0000000000000","APOAPSIS":"361.956","REF_FRAME":"TEME","MEAN_ANOMALY":"269.1075","TLE_LINE1":"1 49141U 21082M   21286.91668981 -.00006667  00000-0 -54107-4 0  9997","LAUNCH_DATE":"2021-09-14","MEAN_MOTION":"15.69750267","ELEMENT_SET_NO":"999","ARG_OF_PERICENTER":"278.4579","SEMIMAJOR_AXIS":"6737.749","CENTER_NAME":"EARTH","MEAN_ELEMENT_THEORY":"SGP4","OBJECT_ID":"2021-082M","DECAY_DATE":null},{"INCLINATION":"69.9997","EPHEMERIS_TYPE":"0","TLE_LINE2":"2 49142  69.9997  43.1269 0003737 283.5613 268.2573 15.69750343  3700","SITE":"AFWTR","GP_ID":"187102407","RCS_SIZE":"LARGE","CLASSIFICATION_TYPE":"U","NORAD_CAT_ID":"49142","COUNTRY_CODE":"US","FILE":"3161149","REV_AT_EPOCH":"370","TIME_SYSTEM":"UTC","OBJECT_NAME":"STARLINK-3042","PERIOD":"91.734","PERIAPSIS":"357.095","ECCENTRICITY":"0.00037370","MEAN_ELEMENT_THEORY":"SGP4","CENTER_NAME":"EARTH","SEMIMAJOR_AXIS":"6737.748","ARG_OF_PERICENTER":"283.5613","ELEMENT_SET_NO":"999","DECAY_DATE":null,"OBJECT_ID":"2021-082N","REF_FRAME":"TEME","APOAPSIS":"362.131","MEAN_MOTION_DDOT":"0.0000000000000","RA_OF_ASC_NODE":"43.1269","OBJECT_TYPE":"PAYLOAD","MEAN_MOTION_DOT":"-0.00006845","BSTAR":"-0.00005559600000","EPOCH":"2021-10-13T22:00:01.999584","MEAN_MOTION":"15.69750343","LAUNCH_DATE":"2021-09-14","TLE_LINE1":"1 49142U 21082N   21286.91668981 -.00006845  00000-0 -55596-4 0  9999","MEAN_ANOMALY":"268.2573"},{"TLE_LINE2":"2 49143  70.0009  43.1336 0003708 286.9429 267.2928 15.69749655  3676","SITE":"AFWTR","GP_ID":"187102622","INCLINATION":"70.0009","EPHEMERIS_TYPE":"0","REV_AT_EPOCH":"367","OBJECT_NAME":"STARLINK-3109","TIME_SYSTEM":"UTC","ECCENTRICITY":"0.00037080","PERIAPSIS":"357.117","PERIOD":"91.734","CLASSIFICATION_TYPE":"U","RCS_SIZE":"LARGE","NORAD_CAT_ID":"49143","FILE":"3161149","COUNTRY_CODE":"US","DECAY_DATE":null,"OBJECT_ID":"2021-082P","SEMIMAJOR_AXIS":"6737.750","CENTER_NAME":"EARTH","ARG_OF_PERICENTER":"286.9429","MEAN_ELEMENT_THEORY":"SGP4","ELEMENT_SET_NO":"999","MEAN_MOTION":"15.69749655","LAUNCH_DATE":"2021-09-14","MEAN_ANOMALY":"267.2928","TLE_LINE1":"1 49143U 21082P   21286.91668981 -.00123694  00000-0 -10496-2 0  9990","APOAPSIS":"362.114","REF_FRAME":"TEME","RA_OF_ASC_NODE":"43.1336","OBJECT_TYPE":"PAYLOAD","MEAN_MOTION_DDOT":"0.0000000000000","BSTAR":"-0.00104960000000","MEAN_MOTION_DOT":"-0.00123694","EPOCH":"2021-10-13T22:00:01.999584"},{"MEAN_ANOMALY":"277.1551","TLE_LINE1":"1 49144U 21082Q   21286.91668981 -.00006807  00000-0 -55280-4 0  9999","LAUNCH_DATE":"2021-09-14","MEAN_MOTION":"15.69750312","EPOCH":"2021-10-13T22:00:01.999584","MEAN_MOTION_DOT":"-0.00006807","BSTAR":"-0.00005528000000","MEAN_MOTION_DDOT":"0.0000000000000","OBJECT_TYPE":"PAYLOAD","RA_OF_ASC_NODE":"43.1193","REF_FRAME":"TEME","APOAPSIS":"362.209","OBJECT_ID":"2021-082Q","DECAY_DATE":null,"ELEMENT_SET_NO":"999","MEAN_ELEMENT_THEORY":"SGP4","ARG_OF_PERICENTER":"281.0433","SEMIMAJOR_AXIS":"6737.748","CENTER_NAME":"EARTH","PERIOD":"91.734","ECCENTRICITY":"0.00038530","PERIAPSIS":"357.017","TIME_SYSTEM":"UTC","OBJECT_NAME":"STARLINK-3100","REV_AT_EPOCH":"367","COUNTRY_CODE":"US","FILE":"3161149","NORAD_CAT_ID":"49144","RCS_SIZE":"LARGE","CLASSIFICATION_TYPE":"U","GP_ID":"187102515","SITE":"AFWTR","TLE_LINE2":"2 49144  69.9997  43.1193 0003853 281.0433 277.1551 15.69750312  3677","EPHEMERIS_TYPE":"0","INCLINATION":"69.9997"},{"PERIAPSIS":"357.274","ECCENTRICITY":"0.00034720","PERIOD":"91.734","OBJECT_NAME":"STARLINK-3119","TIME_SYSTEM":"UTC","REV_AT_EPOCH":"367","FILE":"3161149","COUNTRY_CODE":"US","NORAD_CAT_ID":"49145","CLASSIFICATION_TYPE":"U","RCS_SIZE":"LARGE","GP_ID":"187103155","SITE":"AFWTR","TLE_LINE2":"2 49145  69.9997  43.1144 0003472 280.5439 281.9077 15.69750306  3670","EPHEMERIS_TYPE":"0","INCLINATION":"69.9997","TLE_LINE1":"1 49145U 21082R   21286.91668981 -.00006794  00000-0 -55180-4 0  9994","MEAN_ANOMALY":"281.9077","LAUNCH_DATE":"2021-09-14","MEAN_MOTION":"15.69750306","EPOCH":"2021-10-13T22:00:01.999584","BSTAR":"-0.00005518000000","MEAN_MOTION_DOT":"-0.00006794","OBJECT_TYPE":"PAYLOAD","RA_OF_ASC_NODE":"43.1144","MEAN_MOTION_DDOT":"0.0000000000000","APOAPSIS":"361.953","REF_FRAME":"TEME","OBJECT_ID":"2021-082R","DECAY_DATE":null,"ELEMENT_SET_NO":"999","ARG_OF_PERICENTER":"280.5439","SEMIMAJOR_AXIS":"6737.748","CENTER_NAME":"EARTH","MEAN_ELEMENT_THEORY":"SGP4"},{"MEAN_ELEMENT_THEORY":"SGP4","SEMIMAJOR_AXIS":"6737.771","CENTER_NAME":"EARTH","ARG_OF_PERICENTER":"286.9829","ELEMENT_SET_NO":"999","DECAY_DATE":null,"OBJECT_ID":"2021-082S","REF_FRAME":"TEME","APOAPSIS":"362.256","MEAN_MOTION_DDOT":"0.0000000000000","RA_OF_ASC_NODE":"43.1254","OBJECT_TYPE":"PAYLOAD","MEAN_MOTION_DOT":"-0.00122180","BSTAR":"-0.00103680000000","EPOCH":"2021-10-13T22:00:01.999584","MEAN_MOTION":"15.69742363","LAUNCH_DATE":"2021-09-14","MEAN_ANOMALY":"273.6225","TLE_LINE1":"1 49146U 21082S   21286.91668981 -.00122180  00000-0 -10368-2 0  9990","INCLINATION":"70.0004","EPHEMERIS_TYPE":"0","TLE_LINE2":"2 49146  70.0004  43.1254 0003888 286.9829 273.6225 15.69742363  3700","SITE":"AFWTR","GP_ID":"187102744","RCS_SIZE":"LARGE","CLASSIFICATION_TYPE":"U","NORAD_CAT_ID":"49146","COUNTRY_CODE":"US","FILE":"3161149","REV_AT_EPOCH":"370","TIME_SYSTEM":"UTC","OBJECT_NAME":"STARLINK-3116","PERIOD":"91.735","ECCENTRICITY":"0.00038880","PERIAPSIS":"357.016"},{"ELEMENT_SET_NO":"999","SEMIMAJOR_AXIS":"6737.760","CENTER_NAME":"EARTH","ARG_OF_PERICENTER":"288.1775","MEAN_ELEMENT_THEORY":"SGP4","DECAY_DATE":null,"OBJECT_ID":"2021-082T","BSTAR":"-0.00094663000000","MEAN_MOTION_DOT":"-0.00111718","EPOCH":"2021-10-13T22:00:01.999584","APOAPSIS":"362.000","REF_FRAME":"TEME","RA_OF_ASC_NODE":"43.1318","OBJECT_TYPE":"PAYLOAD","MEAN_MOTION_DDOT":"0.0000000000000","LAUNCH_DATE":"2021-09-14","TLE_LINE1":"1 49147U 21082T   21286.91668981 -.00111718  00000-0 -94663-3 0  9997","MEAN_ANOMALY":"268.1820","MEAN_MOTION":"15.69746383","INCLINATION":"70.0015","EPHEMERIS_TYPE":"0","GP_ID":"187073036","TLE_LINE2":"2 49147  70.0015  43.1318 0003526 288.1775 268.1820 15.69746383  5941","SITE":"AFWTR","NORAD_CAT_ID":"49147","FILE":"3160863","COUNTRY_CODE":"US","CLASSIFICATION_TYPE":"U","RCS_SIZE":"LARGE","ECCENTRICITY":"0.00035260","PERIAPSIS":"357.249","PERIOD":"91.735","REV_AT_EPOCH":"594","TIME_SYSTEM":"UTC","OBJECT_NAME":"STARLINK-3071"}];
